{
    "links": {
        "self": "http://www.neowsapp.com/rest/v1/neo/3143085?api_key=iIulBulltgU6a56xZRHN4H3l9WmuAYTsLGpBGhQ2"
    },
    "id": "3143085",
    "neo_reference_id": "3143085",
    "name": "(2002 VY91)",
    "designation": "2002 VY91",
    "nasa_jpl_url": "http://ssd.jpl.nasa.gov/sbdb.cgi?sstr=3143085",
    "absolute_magnitude_h": 26.3,
    "estimated_diameter": {
        "kilometers": {
            "estimated_diameter_min": 0.0146067964,
            "estimated_diameter_max": 0.0326617897
        },
        "meters": {
            "estimated_diameter_min": 14.6067964271,
            "estimated_diameter_max": 32.6617897446
        },
        "miles": {
            "estimated_diameter_min": 0.0090762397,
            "estimated_diameter_max": 0.020295089
        },
        "feet": {
            "estimated_diameter_min": 47.92256199,
            "estimated_diameter_max": 107.1581062656
        }
    },
    "is_potentially_hazardous_asteroid": false,
    "close_approach_data": [
        {
            "close_approach_date": "2002-11-09",
            "close_approach_date_full": "2002-Nov-09 10:00",
            "epoch_date_close_approach": 1036836000000,
            "relative_velocity": {
                "kilometers_per_second": "9.3107895592",
                "kilometers_per_hour": "33518.8424129522",
                "miles_per_hour": "20827.3051648702"
            },
            "miss_distance": {
                "astronomical": "0.0154369052",
                "lunar": "6.0049561228",
                "kilometers": "2309328.137311924",
                "miles": "1434949.9650115912"
            },
            "orbiting_body": "Earth"
        }
    ],
    "orbital_data": {
        "orbit_id": "8",
        "orbit_determination_date": "2017-04-06 09:14:37",
        "first_observation_date": "2002-11-12",
        "last_observation_date": "2002-12-04",
        "data_arc_in_days": 22,
        "observations_used": 20,
        "orbit_uncertainty": "8",
        "minimum_orbit_intersection": ".0064904",
        "jupiter_tisserand_invariant": "3.322",
        "epoch_osculation": "2452599.5",
        "eccentricity": ".5811099619211073",
        "semi_major_axis": "2.327427537521593",
        "inclination": "3.400053843539483",
        "ascending_node_longitude": "228.4282656148619",
        "orbital_period": "1296.918482842819",
        "perihelion_distance": ".9749362098182836",
        "perihelion_argument": "155.5793539608231",
        "aphelion_distance": "3.679918865224903",
        "perihelion_time": "2452570.332084660787",
        "mean_anomaly": "8.096460695895015",
        "mean_motion": ".2775810544475295",
        "equinox": "J2000",
        "orbit_class": {
            "orbit_class_type": "APO",
            "orbit_class_description": "Near-Earth asteroid orbits which cross the Earth’s orbit similar to that of 1862 Apollo",
            "orbit_class_range": "a (semi-major axis) > 1.0 AU; q (perihelion) < 1.017 AU"
        }
    },
    "is_sentry_object": false
}